{"type": "FeatureCollection", "features": [ {"type": "Feature", "properties": {"norad_id": 42741, "name": "EUTELSAT 172B", "group": "eutelsat", "lat": 0.004811487913505733, "lon": 113.71724048087208, "alt_km": 35786.89843261263, "timestamp": "2025-12-09T14:52:25.837506+00:00", "meta": {"OBJECT_NAME": "EUTELSAT 172B", "OBJECT_ID": "2017-029B", "EPOCH": "2025-12-09T02:24:13.275360", "MEAN_MOTION": 1.00270381, "ECCENTRICITY": 1.541e-05, "INCLINATION": 0.0113, "RA_OF_ASC_NODE": 92.4681, "ARG_OF_PERICENTER": 154.1334, "MEAN_ANOMALY": 39.5583, "EPHEMERIS_TYPE": 0, "CLASSIFICATION_TYPE": "U", "NORAD_CAT_ID": 42741, "ELEMENT_SET_NO": 999, "REV_AT_EPOCH": 3182, "BSTAR": 0, "MEAN_MOTION_DOT": -4e-08, "MEAN_MOTION_DDOT": 0}, "tle": {"line1": "1 42741U 17029B   25343.10015365 -.00000004  00000+0  00000+0 0  9998", "line2": "2 42741   0.0113  92.4681 0000154 154.1334  39.5583  1.00270381 31825"}}, "geometry": {"type": "Point", "coordinates": [113.71724048087208, 0.004811487913505733]}}, {"type": "Feature", "properties": {"norad_id": 44334, "name": "EUTELSAT 7C", "group": "eutelsat", "lat": 0.047075008149493204, "lon": -51.27171112767473, "alt_km": 35780.681487132395, "timestamp": "2025-12-09T14:52:25.837527+00:00", "meta": {"OBJECT_NAME": "EUTELSAT 7C", "OBJECT_ID": "2019-034B", "EPOCH": "2025-12-09T05:02:43.094400", "MEAN_MOTION": 1.00270347, "ECCENTRICITY": 0.00033738, "INCLINATION": 0.0731, "RA_OF_ASC_NODE": 179.8984, "ARG_OF_PERICENTER": 62.5056, "MEAN_ANOMALY": 278.4623, "EPHEMERIS_TYPE": 0, "CLASSIFICATION_TYPE": "U", "NORAD_CAT_ID": 44334, "ELEMENT_SET_NO": 999, "REV_AT_EPOCH": 493, "BSTAR": 0, "MEAN_MOTION_DOT": 5e-07, "MEAN_MOTION_DDOT": 0}, "tle": {"line1": "1 44334U 19034B   25343.21022100  .00000050  00000+0  00000+0 0  9993", "line2": "2 44334   0.0731 179.8984 0003373  62.5056 278.4623  1.00270347  4939"}}, "geometry": {"type": "Point", "coordinates": [-51.27171112767473, 0.047075008149493204]}}, {"type": "Feature", "properties": {"norad_id": 44624, "name": "EUTELSAT 5 WEST B", "group": "eutelsat", "lat": -0.05960107657878774, "lon": -63.26380705354279, "alt_km": 35774.48928538562, "timestamp": "2025-12-09T14:52:25.837540+00:00", "meta": {"OBJECT_NAME": "EUTELSAT 5 WEST B", "OBJECT_ID": "2019-067A", "EPOCH": "2025-12-09T04:59:20.916672", "MEAN_MOTION": 1.00271075, "ECCENTRICITY": 0.00035159, "INCLINATION": 0.0644, "RA_OF_ASC_NODE": 341.3724, "ARG_OF_PERICENTER": 277.7318, "MEAN_ANOMALY": 248.9353, "EPHEMERIS_TYPE": 0, "CLASSIFICATION_TYPE": "U", "NORAD_CAT_ID": 44624, "ELEMENT_SET_NO": 999, "REV_AT_EPOCH": 2253, "BSTAR": 0, "MEAN_MOTION_DOT": -4e-07, "MEAN_MOTION_DDOT": 0}, "tle": {"line1": "1 44624U 19067A   25343.20788098 -.00000040  00000+0  00000+0 0  9995", "line2": "2 44624   0.0644 341.3724 0003515 277.7318 248.9353  1.00271075 22538"}}, "geometry": {"type": "Point", "coordinates": [-63.26380705354279, -0.05960107657878774]}}, {"type": "Feature", "properties": {"norad_id": 45027, "name": "EUTELSAT KONNECT", "group": "eutelsat", "lat": -0.04884822249249844, "lon": -51.08886412367443, "alt_km": 35780.15077799851, "timestamp": "2025-12-09T14:52:25.837560+00:00", "meta": {"OBJECT_NAME": "EUTELSAT KONNECT", "OBJECT_ID": "2020-005B", "EPOCH": "2025-12-09T05:02:50.581824", "MEAN_MOTION": 1.00268482, "ECCENTRICITY": 0.00017613, "INCLINATION": 0.0701, "RA_OF_ASC_NODE": 96.7335, "ARG_OF_PERICENTER": 189.0112, "MEAN_ANOMALY": 235.3659, "EPHEMERIS_TYPE": 0, "CLASSIFICATION_TYPE": "U", "NORAD_CAT_ID": 45027, "ELEMENT_SET_NO": 999, "REV_AT_EPOCH": 2243, "BSTAR": 0, "MEAN_MOTION_DOT": 5.1e-07, "MEAN_MOTION_DDOT": 0}, "tle": {"line1": "1 45027U 20005B   25343.21030766  .00000051  00000+0  00000+0 0  9991", "line2": "2 45027   0.0701  96.7335 0001761 189.0112 235.3659  1.00268482 22433"}}, "geometry": {"type": "Point", "coordinates": [-51.08886412367443, -0.04884822249249844]}}, {"type": "Feature", "properties": {"norad_id": 49056, "name": "EUTELSAT QUANTUM", "group": "eutelsat", "lat": -0.005862863300835696, "lon": -10.54717500163364, "alt_km": 35783.050138247534, "timestamp": "2025-12-09T14:52:25.837572+00:00", "meta": {"OBJECT_NAME": "EUTELSAT QUANTUM", "OBJECT_ID": "2021-069B", "EPOCH": "2025-12-09T03:31:36.820416", "MEAN_MOTION": 1.00270774, "ECCENTRICITY": 0.00037625, "INCLINATION": 0.0132, "RA_OF_ASC_NODE": 12.1818, "ARG_OF_PERICENTER": 259.1599, "MEAN_ANOMALY": 267.4033, "EPHEMERIS_TYPE": 0, "CLASSIFICATION_TYPE": "U", "NORAD_CAT_ID": 49056, "ELEMENT_SET_NO": 999, "REV_AT_EPOCH": 1602, "BSTAR": 0, "MEAN_MOTION_DOT": 1.28e-06, "MEAN_MOTION_DDOT": 0}, "tle": {"line1": "1 49056U 21069B   25343.14695394  .00000128  00000+0  00000+0 0  9999", "line2": "2 49056   0.0132  12.1818 0003762 259.1599 267.4033  1.00270774 16023"}}, "geometry": {"type": "Point", "coordinates": [-10.54717500163364, -0.005862863300835696]}}, {"type": "Feature", "properties": {"norad_id": 53765, "name": "EUTELSAT KONNECT VHTS", "group": "eutelsat", "lat": -0.037556475078944766, "lon": -55.55379308370618, "alt_km": 35781.84030699342, "timestamp": "2025-12-09T14:52:25.837583+00:00", "meta": {"OBJECT_NAME": "EUTELSAT KONNECT VHTS", "OBJECT_ID": "2022-110A", "EPOCH": "2025-12-09T05:01:28.214112", "MEAN_MOTION": 1.00270746, "ECCENTRICITY": 0.00026154, "INCLINATION": 0.0634, "RA_OF_ASC_NODE": 102.5857, "ARG_OF_PERICENTER": 135.7711, "MEAN_ANOMALY": 277.922, "EPHEMERIS_TYPE": 0, "CLASSIFICATION_TYPE": "U", "NORAD_CAT_ID": 53765, "ELEMENT_SET_NO": 999, "REV_AT_EPOCH": 492, "BSTAR": 0, "MEAN_MOTION_DOT": 1.9e-07, "MEAN_MOTION_DDOT": 0}, "tle": {"line1": "1 53765U 22110A   25343.20935433  .00000019  00000+0  00000+0 0  9996", "line2": "2 53765   0.0634 102.5857 0002615 135.7711 277.9220  1.00270746  4929"}}, "geometry": {"type": "Point", "coordinates": [-55.55379308370618, -0.037556475078944766]}}, {"type": "Feature", "properties": {"norad_id": 54048, "name": "EUTELSAT HOTBIRD 13F", "group": "eutelsat", "lat": 0.01092453446489834, "lon": -45.28575639584804, "alt_km": 35778.93206129879, "timestamp": "2025-12-09T14:52:25.837595+00:00", "meta": {"OBJECT_NAME": "EUTELSAT HOTBIRD 13F", "OBJECT_ID": "2022-134A", "EPOCH": "2025-12-09T01:39:02.259360", "MEAN_MOTION": 1.00271707, "ECCENTRICITY": 0.0002159, "INCLINATION": 0.0489, "RA_OF_ASC_NODE": 292.5872, "ARG_OF_PERICENTER": 60.3329, "MEAN_ANOMALY": 122.9214, "EPHEMERIS_TYPE": 0, "CLASSIFICATION_TYPE": "U", "NORAD_CAT_ID": 54048, "ELEMENT_SET_NO": 999, "REV_AT_EPOCH": 1147, "BSTAR": 0, "MEAN_MOTION_DOT": 8.9e-07, "MEAN_MOTION_DDOT": 0}, "tle": {"line1": "1 54048U 22134A   25343.06877615  .00000089  00000+0  00000+0 0  9995", "line2": "2 54048   0.0489 292.5872 0002159  60.3329 122.9214  1.00271707 11478"}}, "geometry": {"type": "Point", "coordinates": [-45.28575639584804, 0.01092453446489834]}}, {"type": "Feature", "properties": {"norad_id": 54225, "name": "EUTELSAT HOTBIRD 13G", "group": "eutelsat", "lat": 0.03186128204723593, "lon": -45.28336169896298, "alt_km": 35790.89392692905, "timestamp": "2025-12-09T14:52:25.837607+00:00", "meta": {"OBJECT_NAME": "EUTELSAT HOTBIRD 13G", "OBJECT_ID": "2022-146A", "EPOCH": "2025-12-09T00:10:38.547840", "MEAN_MOTION": 1.00269396, "ECCENTRICITY": 0.00016652, "INCLINATION": 0.0487, "RA_OF_ASC_NODE": 236.9876, "ARG_OF_PERICENTER": 310.6292, "MEAN_ANOMALY": 266.0423, "EPHEMERIS_TYPE": 0, "CLASSIFICATION_TYPE": "U", "NORAD_CAT_ID": 54225, "ELEMENT_SET_NO": 999, "REV_AT_EPOCH": 555, "BSTAR": 0, "MEAN_MOTION_DOT": 8.9e-07, "MEAN_MOTION_DDOT": 0}, "tle": {"line1": "1 54225U 22146A   25343.00739060  .00000089  00000+0  00000+0 0  9990", "line2": "2 54225   0.0487 236.9876 0001665 310.6292 266.0423  1.00269396  5555"}}, "geometry": {"type": "Point", "coordinates": [-45.28336169896298, 0.03186128204723593]}}, {"type": "Feature", "properties": {"norad_id": 54259, "name": "EUTELSAT 10B", "group": "eutelsat", "lat": -0.045067855320532084, "lon": -48.31174124640304, "alt_km": 35789.31609217551, "timestamp": "2025-12-09T14:52:25.837618+00:00", "meta": {"OBJECT_NAME": "EUTELSAT 10B", "OBJECT_ID": "2022-157A", "EPOCH": "2025-12-09T03:20:52.848384", "MEAN_MOTION": 1.00268961, "ECCENTRICITY": 8.419e-05, "INCLINATION": 0.0634, "RA_OF_ASC_NODE": 98.9247, "ARG_OF_PERICENTER": 78.1718, "MEAN_ANOMALY": 321.232, "EPHEMERIS_TYPE": 0, "CLASSIFICATION_TYPE": "U", "NORAD_CAT_ID": 54259, "ELEMENT_SET_NO": 999, "REV_AT_EPOCH": 1112, "BSTAR": 0, "MEAN_MOTION_DOT": 7e-07, "MEAN_MOTION_DDOT": 0}, "tle": {"line1": "1 54259U 22157A   25343.13950056  .00000070  00000+0  00000+0 0  9993", "line2": "2 54259   0.0634  98.9247 0000841  78.1718 321.2320  1.00268961 11125"}}, "geometry": {"type": "Point", "coordinates": [-48.31174124640304, -0.045067855320532084]}}, {"type": "Feature", "properties": {"norad_id": 59346, "name": "EUTELSAT 36D", "group": "eutelsat", "lat": 0.0006213960419899722, "lon": -22.425476389987015, "alt_km": 35785.27047887234, "timestamp": "2025-12-09T14:52:25.837631+00:00", "meta": {"OBJECT_NAME": "EUTELSAT 36D", "OBJECT_ID": "2024-059A", "EPOCH": "2025-12-09T05:10:57.305856", "MEAN_MOTION": 1.00269157, "ECCENTRICITY": 4.025e-05, "INCLINATION": 0.0171, "RA_OF_ASC_NODE": 333.674, "ARG_OF_PERICENTER": 336.1739, "MEAN_ANOMALY": 241.9646, "EPHEMERIS_TYPE": 0, "CLASSIFICATION_TYPE": "U", "NORAD_CAT_ID": 59346, "ELEMENT_SET_NO": 999, "REV_AT_EPOCH": 624, "BSTAR": 0, "MEAN_MOTION_DOT": 1.58e-06, "MEAN_MOTION_DDOT": 0}, "tle": {"line1": "1 59346U 24059A   25343.21594104  .00000158  00000+0  00000+0 0  9992", "line2": "2 59346   0.0171 333.6740 0000402 336.1739 241.9646  1.00269157  6247"}}, "geometry": {"type": "Point", "coordinates": [-22.425476389987015, 0.0006213960419899722]}}]}